KSLV-II DUMMY           
1 52895U 22065B   26159.12032723  .00000050  00000+0  20641-4 0  9998
2 52895  98.2334 299.0635 0009471  68.3168 291.9039 14.58690258211035
STEP CUBE LAB-II        
1 52897U 22065D   26159.17821481  .00000920  00000+0  18757-3 0  9992
2 52897  98.2222 303.1084 0009789  57.9302 302.2849 14.63289760210182
RANDEV                  
1 52898U 22065E   26159.18167146  .00000941  00000+0  19012-3 0  9993
2 52898  98.2208 303.4594 0009109  58.5831 301.6260 14.63676471209936
SNUGLITE-II             
1 52899U 22065F   26159.07970984  .00001114  00000+0  22015-3 0  9994
2 52899  98.2192 303.9272 0008505  58.7360 301.4675 14.64331712209660
MIMAN                   
1 52900U 22065G   26159.15010957  .00000605  00000+0  13062-3 0  9997
2 52900  98.2250 301.6787 0008692  60.1242 300.0822 14.61834509209126
CMS-02 (GSAT-24)        
1 52903U 22067A   26159.14628604 -.00000149  00000+0  00000+0 0  9993
2 52903   0.0371 136.2788 0001763 236.7444  19.1885  1.00271073 14518
MEASAT 3D               
1 52904U 22067B   26159.14793272 -.00000226  00000+0  00000+0 0  9994
2 52904   0.0286   5.2013 0001162  31.9698   4.1252  1.00269980 14559
YAOGAN-35 02A           
1 52907U 22068A   26158.56924550  .00006463  00000+0  26088-3 0  9994
2 52907  34.9910 199.1254 0010144 345.0647  14.9767 15.24056392220422
YAOGAN-35 02B           
1 52908U 22068B   26159.20475880  .00071397  00000+0  88315-3 0  9993
2 52908  34.9947 117.7429 0005015 267.7263  92.2889 15.58896073221293
GAOFEN-12 03            
1 52912U 22069A   26159.19646318  .00001587  00000+0  21640-3 0  9995
2 52912  97.8287  47.2929 0001698 110.4237 249.7158 14.80023390213289
SES-22                  
1 52933U 22071A   26159.10228743  .00000120  00000+0  00000+0 0  9995
2 52933   0.0260 286.6688 0001196 142.8695  84.7959  1.00273746  7434
DS-EO                   
1 52935U 22072A   26158.91765781  .00005807  00000+0  26796-3 0  9995
2 52935   9.9938 253.1455 0003388 190.1953 169.8194 15.13787415217100
POEM                    
1 52939U 22072E   26158.72713503  .00007754  00000+0  27017-3 0  9993
2 52939   9.9493 142.6098 0022491  55.9683 304.2666 15.23976093218067
WFOV (USA 332)          
1 52940U 22073A   26159.01088969 -.00000347  00000+0  00000+0 0  9991
2 52940   3.6864  78.6449 0002134 244.5340  56.4115  1.00272058 14270
COSMOS 2557 [GLONASS-K] 
1 52984U 22075A   26155.90818447 -.00000037  00000+0  00000+0 0  9993
2 52984  64.3043 314.9179 0010156 276.0496  83.8276  2.13102273 30458
STARLINK-4260           
1 52986U 22076A   26158.99668060  .00001688  00000+0  12415-3 0  9991
2 52986  53.1694  48.6735 0001437  76.9028 283.2124 15.08835046216472
STARLINK-4259           
1 52987U 22076B   26159.03624316  .00000682  00000+0  60942-4 0  9996
2 52987  53.1684  58.4964 0001153  97.1478 262.9644 15.08836127216342
STARLINK-4291           
1 52988U 22076C   26158.99300205  .00000954  00000+0  78026-4 0  9993
2 52988  53.1694  48.6923 0001249 103.0908 257.0223 15.08835399216473
STARLINK-4293           
1 52989U 22076D   26159.16672454  .00172318  00000+0  41448-2 0  9992
2 52989  53.2178  50.2577 0001179  62.3175 314.9008 15.40177407  5836
STARLINK-4286           
1 52990U 22076E   26159.02888648  .00004571  00000+0  30524-3 0  9992
2 52990  53.1675  58.5298 0001392 104.7695 255.3450 15.08821598216345
STARLINK-4285           
1 52991U 22076F   26159.02520084  .00001336  00000+0  10203-3 0  9998
2 52991  53.1690  58.5512 0001688 104.0018 256.1161 15.08838719216343
STARLINK-4269           
1 52992U 22076G   26159.02248332  .00000886  00000+0  73784-4 0  9995
2 52992  53.1674  58.5705 0001384  93.5292 266.5858 15.08831604216343
STARLINK-4256           
1 52994U 22076J   26158.98564512  .00000554  00000+0  52907-4 0  9998
2 52994  53.1700  48.7259 0001399  81.6233 278.4917 15.08819775216476
STARLINK-4296           
1 52995U 22076K   26158.97828104 -.00004252  00000+0 -24909-3 0  9999
2 52995  53.1693  48.7555 0001815  89.8163 270.3037 15.08853062216473
STARLINK-4295           
1 52996U 22076L   26158.94247341  .00000680  00000+0  60803-4 0  9998
2 52996  53.1688  49.1980 0001344  82.9341 277.1804 15.08837226216464
STARLINK-4254           
1 52998U 22076N   26158.96722959  .00000288  00000+0  36178-4 0  9997
2 52998  53.1676  48.7196 0001171  87.2586 272.8540 15.08836766216472
STARLINK-4217           
1 52999U 22076P   26158.95993470 -.00008510  00000+0 -51818-3 0  9990
2 52999  53.1693  48.8407 0001376  96.1298 263.9850 15.08773396216478
STARLINK-4194           
1 53000U 22076Q   26158.97459998  .00000058  00000+0  21734-4 0  9990
2 53000  53.1707  48.7745 0001410  86.9665 273.1487 15.08838493216475
STARLINK-4190           
1 53001U 22076R   26158.95620278  .00000874  00000+0  72985-4 0  9990
2 53001  53.1678  48.8563 0001383  90.9965 269.1185 15.08835526216473
STARLINK-4121           
1 53002U 22076S   26158.97092169 -.00000109  00000+0  11254-4 0  9999
2 53002  53.1699  48.7905 0001532  88.8127 271.3040 15.08836225216470
STARLINK-4255           
1 53003U 22076T   26159.01510711 -.00003156  00000+0 -18045-3 0  9994
2 53003  53.1701  48.5917 0001219 107.5154 252.5971 15.08804869216481
