OBJECT_NAME,OBJECT_ID,EPOCH,MEAN_MOTION,ECCENTRICITY,INCLINATION,RA_OF_ASC_NODE,ARG_OF_PERICENTER,MEAN_ANOMALY,EPHEMERIS_TYPE,CLASSIFICATION_TYPE,NORAD_CAT_ID,ELEMENT_SET_NO,REV_AT_EPOCH,BSTAR,MEAN_MOTION_DOT,MEAN_MOTION_DDOT
KSLV-II DUMMY,2022-065B,2026-06-08T02:53:16.272672,14.58690258,.0009471,98.2334,299.0635,68.3168,291.9039,0,U,52895,999,21103,.20641E-4,.5E-6,0
STEP CUBE LAB-II,2022-065D,2026-06-08T04:16:37.759584,14.63289760,.0009789,98.2222,303.1084,57.9302,302.2849,0,U,52897,999,21018,.18757E-3,.92E-5,0
RANDEV,2022-065E,2026-06-08T04:21:36.414144,14.63676471,.0009109,98.2208,303.4594,58.5831,301.6260,0,U,52898,999,20993,.19012E-3,.941E-5,0
SNUGLITE-II,2022-065F,2026-06-08T01:54:46.930176,14.64331712,.0008505,98.2192,303.9272,58.7360,301.4675,0,U,52899,999,20966,.22015E-3,.1114E-4,0
MIMAN,2022-065G,2026-06-08T03:36:09.466848,14.61834509,.0008692,98.2250,301.6787,60.1242,300.0822,0,U,52900,999,20912,.13062E-3,.605E-5,0
CMS-02 (GSAT-24),2022-067A,2026-06-08T03:30:39.113856,1.00271073,.0001763,0.0371,136.2788,236.7444,19.1885,0,U,52903,999,1451,0,-.149E-5,0
MEASAT 3D,2022-067B,2026-06-08T03:33:01.387008,1.00269980,.0001162,0.0286,5.2013,31.9698,4.1252,0,U,52904,999,1455,0,-.226E-5,0
YAOGAN-35 02A,2022-068A,2026-06-07T13:39:42.811200,15.24056392,.0010144,34.9910,199.1254,345.0647,14.9767,0,U,52907,999,22042,.26088E-3,.6463E-4,0
YAOGAN-35 02B,2022-068B,2026-06-08T04:54:51.160320,15.58896073,.0005015,34.9947,117.7429,267.7263,92.2889,0,U,52908,999,22129,.88315E-3,.71397E-3,0
GAOFEN-12 03,2022-069A,2026-06-08T04:42:54.418752,14.80023390,.0001698,97.8287,47.2929,110.4237,249.7158,0,U,52912,999,21328,.2164E-3,.1587E-4,0
SES-22,2022-071A,2026-06-08T02:27:17.633952,1.00273746,.0001196,0.0260,286.6688,142.8695,84.7959,0,U,52933,999,743,0,.12E-5,0
DS-EO,2022-072A,2026-06-07T22:01:25.634784,15.13787415,.0003388,9.9938,253.1455,190.1953,169.8194,0,U,52935,999,21710,.26796E-3,.5807E-4,0
POEM,2022-072E,2026-06-07T17:27:04.466592,15.23976093,.0022491,9.9493,142.6098,55.9683,304.2666,0,U,52939,999,21806,.27017E-3,.7754E-4,0
WFOV (USA 332),2022-073A,2026-06-08T00:15:40.869216,1.00272058,.0002134,3.6864,78.6449,244.5340,56.4115,0,U,52940,999,1427,0,-.347E-5,0
COSMOS 2557 [GLONASS-K],2022-075A,2026-06-04T21:47:47.138208,2.13102273,.00101568,64.3043,314.9179,276.0496,83.8276,0,U,52984,999,3045,0,-.37E-6,0
STARLINK-4260,2022-076A,2026-06-07T23:55:13.203840,15.08835046,.0001437,53.1694,48.6735,76.9028,283.2124,0,U,52986,999,21647,.12415E-3,.1688E-4,0
STARLINK-4259,2022-076B,2026-06-08T00:52:11.409024,15.08836127,.0001153,53.1684,58.4964,97.1478,262.9644,0,U,52987,999,21634,.60942E-4,.682E-5,0
STARLINK-4291,2022-076C,2026-06-07T23:49:55.377120,15.08835399,.0001249,53.1694,48.6923,103.0908,257.0223,0,U,52988,999,21647,.78026E-4,.954E-5,0
STARLINK-4293,2022-076D,2026-06-08T04:00:05.000256,15.40177407,.0001179,53.2178,50.2577,62.3175,314.9008,0,U,52989,999,583,.41448E-2,.172318E-2,0
STARLINK-4286,2022-076E,2026-06-08T00:41:35.791872,15.08821598,.0001392,53.1675,58.5298,104.7695,255.3450,0,U,52990,999,21634,.30524E-3,.4571E-4,0
STARLINK-4285,2022-076F,2026-06-08T00:36:17.352576,15.08838719,.0001688,53.1690,58.5512,104.0018,256.1161,0,U,52991,999,21634,.10203E-3,.1336E-4,0
STARLINK-4269,2022-076G,2026-06-08T00:32:22.558848,15.08831604,.0001384,53.1674,58.5705,93.5292,266.5858,0,U,52992,999,21634,.73784E-4,.886E-5,0
STARLINK-4256,2022-076J,2026-06-07T23:39:19.738368,15.08819775,.0001399,53.1700,48.7259,81.6233,278.4917,0,U,52994,999,21647,.52907E-4,.554E-5,0
STARLINK-4296,2022-076K,2026-06-07T23:28:43.481856,15.08853062,.0001815,53.1693,48.7555,89.8163,270.3037,0,U,52995,999,21647,-.24909E-3,-.4252E-4,0
STARLINK-4295,2022-076L,2026-06-07T22:37:09.702624,15.08837226,.0001344,53.1688,49.1980,82.9341,277.1804,0,U,52996,999,21646,.60803E-4,.68E-5,0
STARLINK-4254,2022-076N,2026-06-07T23:12:48.636576,15.08836766,.0001171,53.1676,48.7196,87.2586,272.8540,0,U,52998,999,21647,.36178E-4,.288E-5,0
STARLINK-4217,2022-076P,2026-06-07T23:02:18.358080,15.08773396,.0001376,53.1693,48.8407,96.1298,263.9850,0,U,52999,999,21647,-.51818E-3,-.851E-4,0
STARLINK-4194,2022-076Q,2026-06-07T23:23:25.438272,15.08838493,.000141,53.1707,48.7745,86.9665,273.1487,0,U,53000,999,21647,.21734E-4,.58E-6,0
STARLINK-4190,2022-076R,2026-06-07T22:56:55.920192,15.08835526,.0001383,53.1678,48.8563,90.9965,269.1185,0,U,53001,999,21647,.72985E-4,.874E-5,0
STARLINK-4121,2022-076S,2026-06-07T23:18:07.634016,15.08836225,.0001532,53.1699,48.7905,88.8127,271.3040,0,U,53002,999,21647,.11254E-4,-.109E-5,0
STARLINK-4255,2022-076T,2026-06-08T00:21:45.254304,15.08804869,.0001219,53.1701,48.5917,107.5154,252.5971,0,U,53003,999,21648,-.18045E-3,-.3156E-4,0
